{"type":"Feature","properties":{"name":"珠江口区域陆地背景","source":"Natural Earth","license":"Public domain","note":"Locally cropped regional context for the MapLibre command view; contains no roads, POIs, labels, or epidemic data."},"geometry":{"type":"MultiPolygon","coordinates":[[[[112.1,21.799132323056977],[112.172699,21.814439],[112.182221,21.823147],[112.192638,21.843166],[112.200938,21.826728],[112.203136,21.806708],[112.198985,21.786811],[112.188975,21.770575],[112.182384,21.752997],[112.196869,21.742336],[112.216645,21.735541],[112.226817,21.729641],[112.244884,21.706529],[112.286225,21.708808],[112.332123,21.724066],[112.363292,21.733344],[112.372569,21.742621],[112.38144,21.748521],[112.38795,21.75609],[112.392833,21.785142],[112.40211,21.801418],[112.404307,21.81151],[112.401134,21.83747],[112.39796,21.850572],[112.394054,21.856269],[112.388438,21.86225],[112.387787,21.876166],[112.390636,21.90119],[112.387706,21.908759],[112.370128,21.938788],[112.356537,21.979722],[112.357514,22.005357],[112.364838,22.034491],[112.378184,22.058417],[112.397472,22.068508],[112.392833,22.056301],[112.381684,22.006741],[112.377208,21.994574],[112.376313,21.986558],[112.37851,21.976874],[112.388438,21.963121],[112.390636,21.955512],[112.404796,21.942857],[112.43629,21.945624],[112.468842,21.955959],[112.486176,21.966132],[112.493663,21.966132],[112.481456,21.944648],[112.424164,21.917792],[112.411143,21.90119],[112.41505,21.868476],[112.426036,21.84516],[112.443207,21.828437],[112.550873,21.772854],[112.579112,21.766832],[112.608002,21.775092],[112.633067,21.795803],[112.647553,21.822659],[112.645112,21.849351],[112.685557,21.869859],[112.690929,21.875149],[112.6963,21.88581],[112.70045,21.890326],[112.706065,21.891791],[112.730479,21.890326],[112.737641,21.896877],[112.740245,21.925442],[112.743744,21.931952],[112.788585,21.951809],[112.800385,21.94717],[112.807709,21.952826],[112.814789,21.961575],[112.82602,21.966132],[112.840831,21.960924],[112.851573,21.94831],[112.858979,21.932522],[112.871104,21.893744],[112.879405,21.87519],[112.911586,21.856291],[112.92878,21.865299],[112.957081,21.875653],[112.972667,21.892076],[112.979584,21.90119],[112.980968,21.907172],[112.985932,21.920559],[112.987071,21.928534],[112.98935,21.937323],[112.994721,21.938422],[113.001475,21.938707],[113.016676,21.942533],[113.02562,21.949425],[113.028618,21.961148],[113.021195,21.972191],[113.018969,21.97702],[113.021213,21.984605],[113.022729,22.002534],[113.018286,22.021158],[113.018304,22.03495],[113.016105,22.057712],[113.01762,22.081843],[113.02211,22.101146],[113.020638,22.125978],[113.026614,22.143212],[113.057893,22.121094],[113.07729,22.147267],[113.085053,22.207587],[113.110606,22.219306],[113.110362,22.204169],[113.113292,22.187405],[113.119151,22.171942],[113.127452,22.160956],[113.118244,22.143746],[113.124522,22.13109],[113.115326,22.113471],[113.110606,22.099189],[113.118857,22.065838],[113.13963,22.036852],[113.157467,22.0247],[113.178314,22.040914],[113.194692,22.046395],[113.214122,22.045315],[113.230561,22.043158],[113.247162,22.054267],[113.251231,22.060736],[113.254975,22.071112],[113.25587,22.082668],[113.246593,22.103461],[113.250987,22.115668],[113.263438,22.13703],[113.273529,22.138373],[113.278168,22.14053],[113.282237,22.145413],[113.285655,22.153266],[113.294688,22.167873],[113.297944,22.176825],[113.302745,22.183295],[113.312999,22.185777],[113.32545,22.183661],[113.350841,22.171536],[113.362559,22.171454],[113.401971,22.179574],[113.364513,22.230129],[113.354015,22.243557],[113.328506,22.268476],[113.318158,22.289166],[113.302989,22.30976],[113.227306,22.425279],[113.18922,22.462592],[113.165619,22.478746],[113.160167,22.487616],[113.158458,22.506741],[113.165294,22.575588],[113.177582,22.564114],[113.231944,22.479071],[113.242686,22.457465],[113.255626,22.403876],[113.276378,22.372056],[113.303233,22.343655],[113.351573,22.308336],[113.357026,22.301907],[113.360199,22.293158],[113.362315,22.27497],[113.364513,22.267768],[113.411876,22.225531],[113.419037,22.208808],[113.425629,22.186225],[113.459214,22.158004],[113.483745,22.155142],[113.49723,22.171641],[113.521495,22.191311],[113.528087,22.199937],[113.529877,22.202257],[113.52947,22.202867],[113.52296,22.213039],[113.538585,22.221747],[113.552857,22.219006],[113.561196,22.23373],[113.587655,22.237882],[113.589987,22.253415],[113.583748,22.263459],[113.57721,22.266637],[113.574702,22.284832],[113.573578,22.300727],[113.583018,22.309516],[113.592296,22.316148],[113.59669,22.325751],[113.59726,22.341539],[113.599457,22.350531],[113.610362,22.370185],[113.581635,22.371324],[113.558116,22.380764],[113.551571,22.395837],[113.546355,22.437585],[113.562511,22.480414],[113.594738,22.52339],[113.59917,22.57518],[113.563844,22.614444],[113.553043,22.638472],[113.516277,22.671418],[113.476329,22.699856],[113.466319,22.716498],[113.453624,22.725735],[113.39503,22.748196],[113.377533,22.767401],[113.426036,22.749416],[113.439545,22.739447],[113.451915,22.755113],[113.46339,22.762397],[113.494233,22.774848],[113.440033,22.804145],[113.425873,22.815823],[113.367931,22.880683],[113.350434,22.889716],[113.332042,22.887519],[113.312592,22.881008],[113.292247,22.877265],[113.283051,22.880439],[113.263927,22.894599],[113.258067,22.897773],[113.234874,22.899644],[113.212983,22.904527],[113.212983,22.912014],[113.307628,22.89411],[113.336518,22.897773],[113.429942,22.931342],[113.446381,22.928453],[113.467865,22.919013],[113.473725,22.918199],[113.483979,22.924262],[113.484223,22.929348],[113.480968,22.935696],[113.491232,22.953953],[113.503844,22.989833],[113.502312,23.020424],[113.481212,23.0515],[113.451427,23.062323],[113.419281,23.065497],[113.398692,23.083319],[113.417491,23.096991],[113.44516,23.089342],[113.494233,23.062812],[113.509125,23.062161],[113.524669,23.066596],[113.536876,23.075019],[113.542003,23.086412],[113.550873,23.087877],[113.587657,23.106106],[113.593272,23.110663],[113.626475,23.117987],[113.67392,23.150458],[113.703136,23.157782],[113.719819,23.155341],[113.745372,23.143012],[113.761078,23.137926],[113.797944,23.134345],[113.813243,23.129788],[113.830089,23.117499],[113.800873,23.128404],[113.784434,23.131741],[113.758067,23.121568],[113.744233,23.126044],[113.731456,23.133857],[113.720225,23.137926],[113.691987,23.132554],[113.637218,23.109117],[113.582123,23.098456],[113.556407,23.084133],[113.536388,23.063137],[113.528331,23.038031],[113.528819,23.01081],[113.532725,22.995754],[113.542003,22.986518],[113.553966,22.987616],[113.56422,22.996894],[113.583018,23.021226],[113.583832,22.978461],[113.582042,22.957465],[113.576182,22.938707],[113.586681,22.953559],[113.599213,23.009223],[113.617198,23.034898],[113.605072,23.00141],[113.602631,22.987738],[113.604096,22.973456],[113.597992,22.960517],[113.595063,22.94477],[113.594981,22.929592],[113.59669,22.918199],[113.601817,22.930609],[113.609141,22.962877],[113.612071,22.994696],[113.61671,23.00788],[113.630707,23.034898],[113.638194,23.034898],[113.62436,22.999213],[113.619151,22.979397],[113.617198,22.956041],[113.611339,22.933783],[113.592296,22.889065],[113.596039,22.880561],[113.597992,22.889635],[113.602875,22.89765],[113.610362,22.904527],[113.604991,22.887519],[113.602306,22.86636],[113.605561,22.847235],[113.617198,22.836249],[113.612885,22.848375],[113.610118,22.862047],[113.61085,22.87637],[113.617198,22.890286],[113.632579,22.853095],[113.643565,22.834174],[113.655284,22.819241],[113.662608,22.798082],[113.656261,22.776842],[113.653575,22.758734],[113.672374,22.746894],[113.684581,22.746894],[113.691173,22.751614],[113.695079,22.757473],[113.699718,22.761176],[113.712169,22.763332],[113.744395,22.761176],[113.758067,22.753404],[113.764659,22.734809],[113.772934,22.672448],[113.793568,22.661614],[113.799157,22.631001],[113.812836,22.604397],[113.822358,22.587226],[113.833832,22.571926],[113.843761,22.561957],[113.879893,22.536689],[113.893891,22.521145],[113.881847,22.514146],[113.866155,22.511493],[113.867873,22.494829],[113.874363,22.478184],[113.881479,22.473333],[113.890345,22.452712],[113.909679,22.477647],[113.91033,22.485826],[113.913422,22.487616],[113.915294,22.488674],[113.925059,22.487047],[113.935802,22.488918],[113.947758,22.490406],[113.948816,22.500348],[113.948901,22.5112],[113.951939,22.523841],[113.960297,22.528469],[113.963796,22.538113],[113.970632,22.533718],[113.984386,22.533718],[113.987478,22.531846],[113.999278,22.530626],[114.018565,22.522569],[114.035411,22.514228],[114.035492,22.514146],[114.035818,22.513821],[114.038097,22.511379],[114.038748,22.510565],[114.042003,22.506781],[114.055268,22.506944],[114.058442,22.516995],[114.067231,22.521918],[114.079682,22.523749],[114.079112,22.527574],[114.082367,22.529364],[114.085297,22.522935],[114.078298,22.519721],[114.073497,22.518175],[114.065766,22.515855],[114.061778,22.508775],[114.057953,22.504869],[114.042247,22.501003],[114.03061,22.49551],[114.03061,22.487657],[114.031423,22.482245],[114.029877,22.478258],[114.026785,22.478258],[114.014985,22.475206],[114.01116,22.472886],[114.011729,22.480048],[114.012706,22.486111],[114.004893,22.488552],[113.998627,22.488552],[113.97755,22.458848],[113.954112,22.44949],[113.94101,22.426785],[113.930675,22.419827],[113.909434,22.418606],[113.896983,22.408759],[113.910574,22.398668],[113.918305,22.387844],[113.914399,22.376125],[113.925955,22.369086],[113.930675,22.369086],[113.944835,22.362087],[113.954926,22.369859],[113.97462,22.372056],[113.964366,22.380683],[113.970632,22.387071],[113.972911,22.379991],[113.976736,22.379218],[113.982677,22.366767],[113.991873,22.364081],[113.998627,22.358995],[114.014985,22.358995],[114.014985,22.353461],[114.020518,22.350369],[114.039887,22.355007],[114.050222,22.358995],[114.057953,22.361314],[114.067231,22.358995],[114.070404,22.36286],[114.078298,22.36286],[114.079112,22.365953],[114.097504,22.363023],[114.104828,22.369859],[114.111013,22.365953],[114.113373,22.352688],[114.123546,22.337144],[114.12436,22.342231],[114.138194,22.336005],[114.152192,22.328518],[114.159516,22.322252],[114.159516,22.315212],[114.164887,22.315212],[114.165701,22.310574],[114.168224,22.305487],[114.167247,22.294176],[114.171886,22.288723],[114.176524,22.291083],[114.181651,22.29442],[114.183686,22.301947],[114.191417,22.298896],[114.191417,22.301947],[114.186534,22.308743],[114.195486,22.318264],[114.212494,22.301174],[114.214854,22.301174],[114.211762,22.310574],[114.228119,22.291856],[114.238943,22.281684],[114.253022,22.295762],[114.251475,22.305162],[114.255544,22.322333],[114.266368,22.315985],[114.265636,22.309801],[114.264822,22.301947],[114.273367,22.295762],[114.279796,22.279364],[114.278331,22.270453],[114.288992,22.264594],[114.296723,22.258287],[114.303152,22.262152],[114.303152,22.269192],[114.300059,22.277045],[114.289561,22.273912],[114.289724,22.281684],[114.288992,22.287177],[114.290538,22.28795],[114.297699,22.285631],[114.305675,22.290758],[114.311615,22.297309],[114.303884,22.306708],[114.29599,22.305162],[114.292084,22.305162],[114.29127,22.316555],[114.277192,22.3192],[114.272553,22.320705],[114.265798,22.34634],[114.255544,22.355902],[114.258393,22.362087],[114.266368,22.365953],[114.267182,22.35578],[114.276459,22.348049],[114.279796,22.355007],[114.273367,22.363634],[114.268728,22.378445],[114.278005,22.390977],[114.285981,22.390977],[114.300059,22.381578],[114.310069,22.383775],[114.318614,22.38939],[114.320404,22.380764],[114.334321,22.375312],[114.332774,22.359768],[114.339041,22.352688],[114.34197,22.345771],[114.352306,22.351915],[114.352306,22.339464],[114.357595,22.332424],[114.36085,22.345771],[114.370209,22.348822],[114.37558,22.353461],[114.379487,22.362087],[114.376394,22.370632],[114.385753,22.370185],[114.386567,22.36522],[114.38974,22.365953],[114.384939,22.387356],[114.375011,22.400539],[114.370209,22.397976],[114.381765,22.419053],[114.389334,22.417914],[114.401296,22.412746],[114.39739,22.428412],[114.39975,22.436143],[114.385753,22.439236],[114.370209,22.440009],[114.367361,22.446275],[114.367849,22.454983],[114.359874,22.461168],[114.351573,22.440985],[114.352306,22.423692],[114.347585,22.422919],[114.342784,22.43769],[114.337413,22.431586],[114.332774,22.440009],[114.338064,22.446357],[114.335704,22.461737],[114.325043,22.46426],[114.33074,22.474107],[114.325043,22.475206],[114.323741,22.480048],[114.300792,22.465033],[114.301606,22.456529],[114.288992,22.453315],[114.276459,22.443996],[114.288992,22.426011],[114.276459,22.419827],[114.272553,22.409654],[114.267182,22.415961],[114.269379,22.425523],[114.267182,22.430732],[114.251475,22.430732],[114.243826,22.435533],[114.23821,22.43537],[114.234223,22.42475],[114.223399,22.415025],[114.215587,22.400336],[114.209321,22.398668],[114.214854,22.408881],[114.209972,22.412746],[114.211762,22.4206],[114.200206,22.428168],[114.187511,22.436143],[114.176524,22.443223],[114.167491,22.448065],[114.186697,22.451768],[114.190603,22.456529],[114.20224,22.458075],[114.209321,22.454088],[114.209972,22.44949],[114.217133,22.447943],[114.215587,22.454983],[114.210948,22.457302],[114.209321,22.465806],[114.211762,22.470567],[114.217133,22.467353],[114.231212,22.469794],[114.245942,22.451768],[114.253754,22.451768],[114.264089,22.458075],[114.268728,22.465033],[114.280447,22.472886],[114.29363,22.478258],[114.305431,22.483018],[114.316335,22.492377],[114.335134,22.506415],[114.332774,22.511949],[114.326589,22.508775],[114.298513,22.501003],[114.289236,22.505194],[114.285167,22.511176],[114.27768,22.511664],[114.279796,22.519721],[114.279796,22.526028],[114.278005,22.529853],[114.27003,22.52558],[114.265147,22.528469],[114.265636,22.535264],[114.259207,22.540798],[114.253266,22.539455],[114.25766,22.547838],[114.254568,22.550971],[114.249034,22.547838],[114.245942,22.550971],[114.242035,22.550198],[114.234304,22.536933],[114.230398,22.532945],[114.218679,22.529853],[114.217947,22.526028],[114.209321,22.523708],[114.209972,22.534491],[114.214854,22.534491],[114.222179,22.541449],[114.227224,22.547065],[114.234711,22.556179],[114.229828,22.555813],[114.238292,22.559923],[114.249685,22.570502],[114.269623,22.582953],[114.276215,22.587958],[114.302175,22.582953],[114.30714,22.585435],[114.305349,22.594184],[114.316905,22.6022],[114.317149,22.602362],[114.324555,22.598538],[114.328054,22.604763],[114.328461,22.605455],[114.329112,22.605007],[114.340261,22.597886],[114.360688,22.604804],[114.380138,22.610338],[114.3956,22.613511],[114.395763,22.613511],[114.408702,22.61164],[114.414236,22.604804],[114.424327,22.601671],[114.433035,22.591091],[114.438487,22.582953],[114.437348,22.579372],[114.436778,22.577379],[114.440359,22.568671],[114.445323,22.571763],[114.446951,22.57156],[114.45574,22.570502],[114.462169,22.561754],[114.471202,22.551703],[114.479584,22.54621],[114.479584,22.539333],[114.485118,22.53441],[114.48699,22.521918],[114.484548,22.516995],[114.47641,22.509426],[114.480154,22.500149],[114.47698,22.490424],[114.476817,22.489895],[114.477224,22.489529],[114.483246,22.484565],[114.484467,22.474351],[114.485118,22.468329],[114.49114,22.464626],[114.492198,22.463975],[114.501557,22.452094],[114.515816,22.452643],[114.529667,22.468285],[114.542162,22.477993],[114.570532,22.484291],[114.587657,22.495592],[114.607514,22.504381],[114.617686,22.514146],[114.611583,22.528713],[114.593272,22.541897],[114.572765,22.551459],[114.559906,22.555121],[114.554779,22.557318],[114.547211,22.567084],[114.543224,22.569403],[114.53712,22.567206],[114.532481,22.562323],[114.529796,22.557359],[114.529552,22.555121],[114.518158,22.552802],[114.509288,22.549547],[114.502045,22.550849],[114.495372,22.561957],[114.502208,22.57392],[114.513927,22.587348],[114.529145,22.598334],[114.546641,22.602932],[114.560883,22.608791],[114.577647,22.635891],[114.590343,22.643866],[114.58253,22.65526],[114.573253,22.654446],[114.562511,22.648342],[114.548216,22.644541],[114.523411,22.645563],[114.534906,22.644648],[114.506607,22.646523],[114.499576,22.653114],[114.505926,22.663689],[114.5171,22.676418],[114.52378,22.687214],[114.522065,22.705959],[114.532481,22.69953],[114.542247,22.695299],[114.552338,22.694525],[114.571096,22.702354],[114.564986,22.717916],[114.563324,22.732733],[114.579378,22.733311],[114.602546,22.740458],[114.617198,22.750067],[114.637787,22.755072],[114.645484,22.767006],[114.664219,22.774176],[114.683812,22.781333],[114.695481,22.792642],[114.716732,22.790803],[114.734141,22.775784],[114.754893,22.781684],[114.762462,22.791083],[114.769786,22.810452],[114.775238,22.815823],[114.78476,22.815863],[114.792735,22.81094],[114.798466,22.808736],[114.807279,22.805383],[114.816954,22.800389],[114.821252,22.79056],[114.817638,22.77912],[114.813243,22.774848],[114.802013,22.773383],[114.795421,22.769924],[114.778551,22.762453],[114.752545,22.749662],[114.741951,22.732653],[114.738879,22.710647],[114.753778,22.693385],[114.74999,22.678724],[114.73745,22.669046],[114.742483,22.646964],[114.742242,22.62738],[114.743776,22.609404],[114.754145,22.589714],[114.774609,22.597693],[114.806416,22.592509],[114.832229,22.602077],[114.865816,22.601745],[114.88682,22.590872],[114.889234,22.572894],[114.880215,22.559113],[114.883641,22.550916],[114.895966,22.547524],[114.919119,22.561155],[114.905213,22.57844],[114.901938,22.598057],[114.924897,22.638658],[114.938731,22.657294],[114.95045,22.664984],[114.966629,22.676487],[114.955302,22.684794],[114.946689,22.696329],[114.937229,22.709492],[114.926726,22.71693],[114.909996,22.723615],[114.902858,22.713934],[114.890447,22.714055],[114.880736,22.72147],[114.878145,22.729638],[114.886217,22.736075],[114.881873,22.747523],[114.870379,22.753348],[114.862524,22.763216],[114.876719,22.767957],[114.889059,22.763748],[114.90311,22.748924],[114.916759,22.744045],[114.926768,22.761176],[114.941661,22.753852],[114.945811,22.742255],[114.95237,22.728833],[114.956584,22.71574],[114.95467,22.703544],[114.959835,22.696134],[114.971258,22.692735],[114.98003,22.688554],[114.985342,22.689309],[114.992521,22.697381],[114.998772,22.702201],[115.008513,22.70372],[115.018277,22.706869],[115.028903,22.708377],[115.030794,22.717322],[115.022081,22.726392],[115.017828,22.737044],[115.02233,22.743513],[115.036632,22.75373],[115.041026,22.761623],[115.045665,22.775865],[115.050304,22.781684],[115.065475,22.795985],[115.101085,22.800116],[115.111664,22.802151],[115.132878,22.811454],[115.150566,22.809634],[115.158273,22.792417],[115.180271,22.784806],[115.174407,22.806892],[115.172944,22.821194],[115.196013,22.831898],[115.217294,22.834891],[115.231456,22.830064],[115.245616,22.835354],[115.255951,22.847846],[115.272227,22.873847],[115.292247,22.895331],[115.303803,22.903022],[115.317149,22.904527],[115.310557,22.882473],[115.309418,22.869371],[115.313731,22.863593],[115.324799,22.859565],[115.32016,22.850531],[115.30304,22.838614],[115.258564,22.820463],[115.232767,22.80534],[115.233391,22.788209],[115.251081,22.78798],[115.289144,22.791553],[115.33057,22.78854],[115.363994,22.763645],[115.374767,22.773285],[115.386241,22.782904],[115.411208,22.788268],[115.422373,22.771797],[115.424133,22.761993],[115.40976,22.75788],[115.397553,22.748765],[115.388927,22.746894],[115.358409,22.748684],[115.350678,22.746894],[115.338471,22.7331],[115.348205,22.717369],[115.361272,22.704137],[115.373508,22.694177],[115.394298,22.689683],[115.421264,22.690236],[115.438265,22.700599],[115.464818,22.701034],[115.491193,22.687587],[115.522096,22.676503],[115.536156,22.668123],[115.575219,22.668336],[115.56422,22.684882],[115.562511,22.705634],[115.580903,22.723334],[115.590099,22.737209],[115.586192,22.745103],[115.567321,22.747281],[115.565753,22.737081],[115.555588,22.71437],[115.523936,22.741767],[115.527017,22.767042],[115.538966,22.788904],[115.556244,22.807435],[115.591319,22.84748],[115.612071,22.863593],[115.600597,22.861884],[115.593354,22.856391],[115.586925,22.849351],[115.577891,22.843166],[115.565929,22.837958],[115.559418,22.836086],[115.54005,22.836249],[115.530365,22.838324],[115.515147,22.847317],[115.505626,22.849311],[115.478608,22.84748],[115.468028,22.849311],[115.468028,22.856757],[115.494151,22.860785],[115.496104,22.880316],[115.483002,22.901842],[115.464203,22.912014],[115.455414,22.909735],[115.446137,22.89997],[115.437022,22.897773],[115.427257,22.900621],[115.418549,22.907701],[115.406016,22.925035],[115.423839,22.918769],[115.430186,22.918199],[115.438324,22.920356],[115.442393,22.929674],[115.450938,22.931871],[115.468272,22.9265],[115.496349,22.903062],[115.505626,22.897773],[115.533783,22.898261],[115.547618,22.895413],[115.546886,22.887152],[115.536632,22.874335],[115.53297,22.862047],[115.539887,22.852932],[115.560557,22.849311],[115.564952,22.853258],[115.574067,22.871731],[115.577891,22.877265],[115.583995,22.880316],[115.639415,22.88935],[115.653331,22.893744],[115.666596,22.904527],[115.683116,22.924262],[115.691987,22.929023],[115.730317,22.934231],[115.733735,22.931871],[115.72755,22.922756],[115.721283,22.904527],[115.713878,22.904527],[115.70517,22.907375],[115.692638,22.900092],[115.682465,22.88817],[115.684266,22.877779],[115.703581,22.869323],[115.697036,22.850671],[115.73687,22.851673],[115.763237,22.841487],[115.776344,22.832346],[115.785055,22.825678],[115.790375,22.821926],[115.798432,22.819525],[115.804779,22.81509],[115.809906,22.808336],[115.812755,22.799547],[115.814708,22.786119],[115.813569,22.776272],[115.806488,22.778266],[115.801362,22.786851],[115.799408,22.794664],[115.795014,22.800279],[115.788039,22.797842],[115.790484,22.7872],[115.79546,22.769988],[115.797812,22.75445],[115.81003,22.746091],[115.825956,22.746644],[115.843212,22.770025],[115.854882,22.77879],[115.883497,22.794619],[115.9,22.790344249295984],[115.9,24],[112.1,24],[112.1,21.799132323056977]]],[[[112.51824,21.616767],[112.519298,21.606676],[112.525401,21.598863],[112.534923,21.595526],[112.539236,21.598944],[112.549083,21.6164],[112.555919,21.62344],[112.567149,21.617621],[112.579926,21.615546],[112.607188,21.616034],[112.616466,21.619208],[112.62379,21.633287],[112.650401,21.640448],[112.649913,21.649319],[112.63795,21.664455],[112.643321,21.678168],[112.651378,21.6883],[112.654552,21.698472],[112.645356,21.712836],[112.620128,21.704495],[112.57781,21.68301],[112.555919,21.678127],[112.567882,21.660631],[112.559825,21.648383],[112.524262,21.626899],[112.51824,21.616767]]],[[[112.706228,21.688381],[112.715587,21.680243],[112.736664,21.681098],[112.759613,21.686347],[112.774425,21.691718],[112.767589,21.663479],[112.734386,21.62873],[112.737153,21.612616],[112.743907,21.608791],[112.749685,21.608791],[112.753673,21.607367],[112.756114,21.593736],[112.758311,21.58808],[112.761485,21.583686],[112.764903,21.581855],[112.790212,21.577582],[112.799653,21.579088],[112.810557,21.589301],[112.793468,21.608222],[112.794444,21.623114],[112.803233,21.63817],[112.810557,21.65762],[112.80714,21.671291],[112.800466,21.689765],[112.797537,21.705878],[112.812511,21.717108],[112.820567,21.726508],[112.831798,21.735907],[112.862559,21.745592],[112.868175,21.757554],[112.862559,21.769436],[112.844005,21.774319],[112.850271,21.774319],[112.821137,21.774807],[112.807628,21.772773],[112.795665,21.766832],[112.777517,21.77265],[112.764903,21.731757],[112.747813,21.733344],[112.724376,21.715806],[112.711681,21.702541],[112.706228,21.688381]]],[[[113.003754,21.869534],[113.012462,21.852607],[113.017345,21.849514],[113.020518,21.854844],[113.034516,21.855292],[113.038829,21.865627],[113.03533,21.878445],[113.024669,21.880845],[113.010916,21.876207],[113.003754,21.869534]]],[[[113.131196,21.850369],[113.148692,21.842597],[113.165538,21.853339],[113.173269,21.849148],[113.180024,21.850328],[113.187999,21.856635],[113.190929,21.863349],[113.187673,21.869045],[113.18157,21.866848],[113.175873,21.862128],[113.167166,21.864488],[113.160655,21.870429],[113.155935,21.872748],[113.151052,21.868964],[113.146332,21.862454],[113.135671,21.864976],[113.131196,21.850369]]],[[[113.180024,21.970771],[113.180349,21.964423],[113.182791,21.960476],[113.188162,21.959988],[113.196137,21.96719],[113.200206,21.975328],[113.198253,21.980048],[113.201589,21.988756],[113.223318,22.000556],[113.231781,22.002956],[113.237641,22.002468],[113.249034,22.004747],[113.248709,22.008124],[113.246349,22.013292],[113.242117,22.018175],[113.239513,22.023301],[113.249197,22.03384],[113.249115,22.038357],[113.243988,22.039293],[113.239513,22.038072],[113.200043,22.038438],[113.192393,22.033759],[113.180024,21.970771]]],[[[113.22169,21.91413],[113.225841,21.900824],[113.229747,21.898749],[113.23463,21.893459],[113.250743,21.883205],[113.258474,21.880439],[113.267751,21.886461],[113.275157,21.897528],[113.278656,21.907375],[113.283702,21.91352],[113.285655,21.918118],[113.280935,21.922838],[113.278005,21.925035],[113.275157,21.931545],[113.267833,21.943305],[113.25766,21.946601],[113.247732,21.943183],[113.2317,21.934475],[113.22169,21.91413]]],[[[113.264171,22.104926],[113.268809,22.088324],[113.279145,22.074693],[113.289073,22.068508],[113.31365,22.076402],[113.336192,22.100491],[113.354015,22.130845],[113.364757,22.157904],[113.347179,22.15644],[113.33546,22.148871],[113.327973,22.145819],[113.32309,22.157904],[113.314952,22.153998],[113.308442,22.148627],[113.30421,22.141832],[113.302745,22.133979],[113.298676,22.128567],[113.289724,22.125474],[113.279145,22.123196],[113.271739,22.120022],[113.264171,22.104926]]],[[[113.309418,22.024115],[113.323497,22.011949],[113.405772,22.007025],[113.40268,22.01435],[113.401622,22.018459],[113.398936,22.021918],[113.391449,22.027533],[113.41033,22.063544],[113.412608,22.075995],[113.398936,22.068508],[113.393565,22.071601],[113.389903,22.074693],[113.387218,22.078192],[113.385265,22.08218],[113.384044,22.085395],[113.384044,22.088121],[113.38266,22.089586],[113.377778,22.089016],[113.372732,22.080146],[113.363292,22.075995],[113.352794,22.073147],[113.343598,22.068508],[113.309418,22.024115]]],[[[113.396169,22.898098],[113.40211,22.88288],[113.434093,22.849066],[113.455903,22.830756],[113.473155,22.825385],[113.473969,22.849311],[113.480805,22.849311],[113.495291,22.81387],[113.506114,22.798041],[113.521169,22.787909],[113.528575,22.802151],[113.535655,22.784329],[113.544607,22.768785],[113.558279,22.75788],[113.579845,22.75373],[113.594574,22.75609],[113.602794,22.762641],[113.602875,22.772447],[113.593516,22.784817],[113.587657,22.794623],[113.576427,22.82392],[113.573009,22.830064],[113.546723,22.834866],[113.527029,22.846625],[113.487804,22.892808],[113.475597,22.900702],[113.432953,22.912014],[113.405121,22.908108],[113.396169,22.898098]]],[[[113.464854,22.10814],[113.465994,22.101508],[113.473481,22.098538],[113.473969,22.088121],[113.470225,22.077623],[113.484711,22.071357],[113.53891,22.082099],[113.547618,22.092597],[113.532563,22.095364],[113.52711,22.106106],[113.530935,22.112942],[113.532725,22.120307],[113.52711,22.125881],[113.518891,22.127265],[113.471528,22.114081],[113.464854,22.10814]]],[[[113.476511,22.719514],[113.491368,22.705774],[113.525331,22.683182],[113.562427,22.655683],[113.60261,22.611521],[113.628015,22.595785],[113.641832,22.601624],[113.64511,22.625115],[113.635687,22.656475],[113.603939,22.684952],[113.575322,22.698734],[113.573204,22.700698],[113.563707,22.720303],[113.559505,22.735],[113.546759,22.741884],[113.525501,22.744873],[113.50208,22.736112],[113.476539,22.731268],[113.476511,22.719514]]],[[[113.505754,22.951609],[113.50996,22.921216],[113.523757,22.896679],[113.545014,22.879961],[113.553542,22.885811],[113.553599,22.911281],[113.54514,22.937762],[113.529186,22.948594],[113.52921,22.960354],[113.515376,22.96922],[113.505754,22.951609]]],[[[113.519867,22.183702],[113.52475,22.173733],[113.524832,22.173814],[113.528901,22.178697],[113.532888,22.178697],[113.535981,22.182644],[113.539887,22.182644],[113.542979,22.18419],[113.548432,22.188056],[113.551524,22.189561],[113.551524,22.1942],[113.55071,22.195868],[113.552257,22.197414],[113.553803,22.195868],[113.553803,22.196641],[113.55714,22.20246],[113.55071,22.198961],[113.549164,22.199734],[113.548432,22.202053],[113.551524,22.204413],[113.556814,22.203559],[113.555593,22.207546],[113.553803,22.211493],[113.55071,22.213853],[113.544526,22.216132],[113.544526,22.217678],[113.53891,22.220771],[113.536469,22.217068],[113.535248,22.214626],[113.528901,22.214626],[113.528901,22.213853],[113.524343,22.212551],[113.527354,22.207546],[113.532888,22.209174],[113.532074,22.210761],[113.533702,22.210761],[113.535248,22.207546],[113.530365,22.201524],[113.525401,22.19363],[113.524832,22.193061],[113.522146,22.190497],[113.520193,22.184882],[113.519867,22.183702]]],[[[113.532237,22.152533],[113.534109,22.14879],[113.542247,22.140815],[113.542328,22.140733],[113.545258,22.114244],[113.541108,22.113267],[113.543712,22.107693],[113.546804,22.105373],[113.549164,22.105373],[113.551524,22.106147],[113.552257,22.107693],[113.557384,22.111151],[113.563243,22.10692],[113.566335,22.107693],[113.565196,22.112616],[113.566661,22.117377],[113.566742,22.123358],[113.570974,22.120144],[113.574067,22.119371],[113.577973,22.120917],[113.577485,22.126654],[113.583588,22.123318],[113.585948,22.124091],[113.587494,22.124864],[113.587494,22.127224],[113.586681,22.129543],[113.585948,22.131944],[113.579763,22.131903],[113.57488,22.135037],[113.577973,22.138088],[113.577973,22.139635],[113.57252,22.137315],[113.567638,22.139065],[113.560232,22.141547],[113.563243,22.15058],[113.567882,22.15058],[113.571788,22.152899],[113.574067,22.156114],[113.574067,22.160753],[113.569428,22.160753],[113.558604,22.163031],[113.552908,22.165839],[113.542979,22.163804],[113.541433,22.16234],[113.534434,22.1612],[113.532237,22.152533]]],[[[113.610441,22.413337],[113.612272,22.397962],[113.621187,22.391419],[113.631449,22.396102],[113.642347,22.40019],[113.642422,22.411421],[113.653293,22.413728],[113.657825,22.423751],[113.65787,22.432023],[113.649595,22.438566],[113.634883,22.438045],[113.623379,22.439872],[113.611816,22.43047],[113.610441,22.413337]]],[[[113.736279,21.997162],[113.739056,21.985973],[113.748206,21.972788],[113.764477,21.966818],[113.775921,21.985859],[113.771747,22.000343],[113.756859,22.00039],[113.745502,21.997795],[113.736279,21.997162]]],[[[113.837332,22.228624],[113.837901,22.217963],[113.839203,22.204901],[113.846446,22.197089],[113.859141,22.201402],[113.873709,22.21308],[113.883962,22.219997],[113.892507,22.222398],[113.894054,22.215318],[113.906261,22.204006],[113.919119,22.205024],[113.928396,22.210761],[113.928396,22.216905],[113.918305,22.219224],[113.921479,22.223985],[113.928396,22.223985],[113.945649,22.23725],[113.980642,22.23725],[113.980642,22.215318],[113.981944,22.208238],[114.000173,22.216132],[114.014985,22.227078],[113.992442,22.241197],[114.007253,22.252102],[113.995372,22.267768],[114.004161,22.264594],[114.018891,22.264594],[114.017589,22.289049],[114.022146,22.301907],[114.012706,22.298082],[114.012706,22.311347],[114.029633,22.308987],[114.031423,22.324571],[114.038341,22.324571],[114.046153,22.323147],[114.050222,22.319932],[114.051768,22.328518],[114.054861,22.33633],[114.049327,22.342231],[114.043793,22.345771],[114.020518,22.328518],[114.017345,22.335517],[113.999522,22.322252],[113.992442,22.310574],[113.983735,22.309027],[113.976736,22.298082],[113.961925,22.301174],[113.93865,22.288723],[113.928396,22.284857],[113.921479,22.291856],[113.911306,22.292711],[113.892507,22.292711],[113.883962,22.279364],[113.876801,22.272284],[113.867605,22.270738],[113.866954,22.268988],[113.859874,22.263454],[113.851085,22.257107],[113.850597,22.256781],[113.856781,22.252265],[113.856781,22.245998],[113.849213,22.244127],[113.849213,22.234198],[113.839203,22.234198],[113.837332,22.228624]]],[[[113.876069,22.383897],[113.879893,22.369859],[113.883962,22.379218],[113.876069,22.383897]]],[[[113.897146,22.158433],[113.910574,22.158433],[113.910574,22.166164],[113.899587,22.163031],[113.897146,22.158433]]],[[[113.903331,22.178697],[113.910574,22.176378],[113.910574,22.178697],[113.903331,22.18651],[113.903331,22.178697]]],[[[113.923676,22.311347],[113.929942,22.301174],[113.929942,22.292711],[113.931488,22.292711],[113.933767,22.300401],[113.936127,22.309801],[113.939464,22.312893],[113.942556,22.322252],[113.936127,22.318427],[113.933035,22.322252],[113.929942,22.315985],[113.923676,22.313666],[113.923676,22.311347]]],[[[113.97755,22.193427],[113.984467,22.188056],[113.989106,22.18651],[113.990733,22.191881],[113.987641,22.198961],[113.983735,22.198961],[113.97755,22.193427]]],[[[114.014985,22.198188],[114.015798,22.191881],[114.026785,22.198961],[114.031423,22.195868],[114.034516,22.205227],[114.026785,22.205227],[114.022146,22.206773],[114.022146,22.202826],[114.014985,22.198188]]],[[[114.020518,22.255194],[114.031423,22.249742],[114.038341,22.241197],[114.042979,22.241197],[114.042247,22.255968],[114.023692,22.255968],[114.020518,22.255194]]],[[[114.034516,22.279364],[114.042979,22.281684],[114.042979,22.285631],[114.038341,22.285631],[114.040701,22.291083],[114.035248,22.288723],[114.034516,22.288723],[114.034516,22.279364]]],[[[114.042979,22.256741],[114.047862,22.256741],[114.051768,22.261379],[114.050222,22.262152],[114.045339,22.262152],[114.042979,22.256741]]],[[[114.054861,22.347276],[114.056407,22.339464],[114.061778,22.339464],[114.062673,22.345771],[114.065766,22.348822],[114.057953,22.351915],[114.054861,22.347276]]],[[[114.069672,22.280137],[114.073497,22.280137],[114.074392,22.284084],[114.071951,22.285631],[114.069672,22.285631],[114.069672,22.280137]]],[[[114.079112,22.349636],[114.086843,22.339464],[114.089041,22.322252],[114.104828,22.326117],[114.108735,22.340237],[114.105642,22.347276],[114.10255,22.353461],[114.093761,22.35578],[114.085297,22.358995],[114.079112,22.35578],[114.079112,22.349636]]],[[[114.104259,22.215969],[114.114106,22.216132],[114.114106,22.185736],[114.11085,22.177069],[114.13738,22.178778],[114.145356,22.178697],[114.139089,22.191107],[114.143077,22.196112],[114.154633,22.203599],[114.149669,22.206041],[114.138194,22.206041],[114.125743,22.205227],[114.132823,22.209947],[114.132823,22.216132],[114.125743,22.213446],[114.117442,22.221869],[114.113292,22.233344],[114.1067,22.235785],[114.106375,22.222398],[114.104259,22.215969]]],[[[114.112559,22.271511],[114.118826,22.269192],[114.123546,22.261379],[114.125011,22.256741],[114.12908,22.248887],[114.135997,22.245754],[114.152192,22.245022],[114.160981,22.240383],[114.162608,22.233303],[114.164887,22.227851],[114.167247,22.227851],[114.171153,22.233303],[114.183849,22.241034],[114.182709,22.23253],[114.191417,22.230984],[114.193696,22.225531],[114.189057,22.219224],[114.196056,22.215318],[114.191417,22.209947],[114.196056,22.207546],[114.206554,22.212388],[114.209321,22.207546],[114.206065,22.205227],[114.207693,22.189561],[114.219493,22.191881],[114.215587,22.198961],[114.218679,22.206],[114.211762,22.216132],[114.218679,22.223985],[114.222667,22.224758],[114.222667,22.23253],[114.216807,22.23432],[114.222667,22.238837],[114.229503,22.233588],[114.232677,22.221991],[114.232758,22.211493],[114.240489,22.205227],[114.243663,22.20128],[114.256114,22.203599],[114.249034,22.222398],[114.253754,22.223985],[114.249034,22.23253],[114.245291,22.241889],[114.251475,22.248887],[114.251475,22.25906],[114.243663,22.264594],[114.23585,22.277818],[114.228119,22.280911],[114.221772,22.279364],[114.215587,22.285631],[114.206391,22.288235],[114.196788,22.291856],[114.188162,22.287177],[114.178884,22.279364],[114.165701,22.279364],[114.157074,22.281684],[114.149913,22.285631],[114.139089,22.288723],[114.12908,22.285631],[114.120453,22.281684],[114.115652,22.279364],[114.113373,22.277818],[114.112559,22.271511]]],[[[114.12908,22.315985],[114.129812,22.315212],[114.136729,22.313666],[114.141368,22.310574],[114.146821,22.313666],[114.145356,22.316799],[114.141368,22.315985],[114.134369,22.319932],[114.12908,22.315985]]],[[[114.142182,22.241197],[114.14446,22.236477],[114.152192,22.230984],[114.156342,22.231757],[114.156342,22.238837],[114.142182,22.241889],[114.142182,22.241197]]],[[[114.206716,22.025784],[114.222423,22.021674],[114.302501,22.044867],[114.305349,22.050279],[114.306814,22.057196],[114.309337,22.062567],[114.310069,22.06859],[114.30421,22.069281],[114.298595,22.067125],[114.295421,22.062812],[114.292979,22.057807],[114.28297,22.052558],[114.271658,22.050523],[114.216807,22.032172],[114.206716,22.025784]]],[[[114.242849,22.175564],[114.249034,22.177151],[114.251475,22.177151],[114.256114,22.181871],[114.253754,22.18651],[114.248383,22.184963],[114.242849,22.184963],[114.242849,22.175564]]],[[[114.250662,22.16234],[114.256114,22.154568],[114.264089,22.16234],[114.26946,22.164578],[114.26946,22.171658],[114.266368,22.178697],[114.256114,22.171658],[114.250662,22.16234]]],[[[114.264822,22.269965],[114.272553,22.27619],[114.265636,22.279364],[114.264822,22.269965]]],[[[114.281342,22.238837],[114.285167,22.238023],[114.288259,22.23253],[114.295177,22.23725],[114.298513,22.242662],[114.29599,22.248114],[114.29599,22.254421],[114.282888,22.248887],[114.282888,22.249742],[114.281342,22.238837]]],[[[114.285981,22.547065],[114.288992,22.540798],[114.300792,22.535264],[114.295177,22.547838],[114.303884,22.547838],[114.316335,22.551744],[114.308523,22.554063],[114.297699,22.550198],[114.288992,22.556383],[114.285981,22.547065]]],[[[114.288992,22.36522],[114.289724,22.353461],[114.29599,22.348822],[114.29599,22.362087],[114.292817,22.371405],[114.288992,22.369086],[114.288992,22.36522]]],[[[114.29363,22.512803],[114.300059,22.506415],[114.312429,22.512803],[114.317068,22.518175],[114.308523,22.526028],[114.303152,22.514268],[114.298513,22.515855],[114.29363,22.512803]]],[[[114.303152,22.36522],[114.304698,22.358995],[114.305431,22.345771],[114.307791,22.342556],[114.328868,22.342556],[114.328868,22.350369],[114.319509,22.358995],[114.316335,22.376125],[114.310883,22.376125],[114.303152,22.36522]]],[[[114.316335,22.33633],[114.319509,22.323798],[114.331228,22.326117],[114.328868,22.337144],[114.323497,22.339464],[114.316335,22.33633]]],[[[114.344412,22.263048],[114.34669,22.25906],[114.349946,22.264594],[114.34669,22.269192],[114.344412,22.263048]]],[[[114.34669,22.309801],[114.352306,22.312893],[114.356049,22.322252],[114.353038,22.322252],[114.34669,22.309801]]],[[[114.353038,22.480658],[114.359141,22.465806],[114.365408,22.474433],[114.363129,22.486111],[114.358328,22.486884],[114.353038,22.480658]]],[[[114.363943,22.312893],[114.368663,22.305162],[114.370209,22.305162],[114.370209,22.311347],[114.366303,22.318427],[114.363943,22.312893]]],[[[114.422537,22.543891],[114.43336,22.543891],[114.427908,22.548611],[114.425629,22.551703],[114.422537,22.543891]]]]}}